[{"OBJECT_NAME":"COSMOS 2588","OBJECT_ID":"2025-109A","EPOCH":"2026-03-09T19:28:59.107008","MEAN_MOTION":15.29122656,"ECCENTRICITY":0.0005019,"INCLINATION":72.9704,"RA_OF_ASC_NODE":73.5401,"ARG_OF_PERICENTER":308.678,"MEAN_ANOMALY":51.3966,"EPHEMERIS_TYPE":0,"CLASSIFICATION_TYPE":"U","NORAD_CAT_ID":64095,"ELEMENT_SET_NO":999,"REV_AT_EPOCH":4442,"BSTAR":0.00032611,"MEAN_MOTION_DOT":9.169e-5,"MEAN_MOTION_DDOT":0},{"OBJECT_NAME":"COSMOS 1220 DEB","OBJECT_ID":"1980-089CJ","EPOCH":"2026-03-09T07:43:28.093152","MEAN_MOTION":15.40496181,"ECCENTRICITY":0.00585687,"INCLINATION":64.9701,"RA_OF_ASC_NODE":55.6717,"ARG_OF_PERICENTER":278.4574,"MEAN_ANOMALY":80.9929,"EPHEMERIS_TYPE":0,"CLASSIFICATION_TYPE":"U","NORAD_CAT_ID":25795,"ELEMENT_SET_NO":999,"REV_AT_EPOCH":55668,"BSTAR":0.00051020882,"MEAN_MOTION_DOT":0.00021921,"MEAN_MOTION_DDOT":0}]
